{
  "links" : {
    "next" : "https://api.nasa.gov/neo/rest/v1/feed?start_date=2011-10-16&end_date=2011-10-16&detailed=true&api_key=t0TVs3DtDT2H8Oy2Zy8m2eVrNsAVKAexjcZXUckd",
    "prev" : "https://api.nasa.gov/neo/rest/v1/feed?start_date=2011-10-14&end_date=2011-10-14&detailed=true&api_key=t0TVs3DtDT2H8Oy2Zy8m2eVrNsAVKAexjcZXUckd",
    "self" : "https://api.nasa.gov/neo/rest/v1/feed?start_date=2011-10-15&end_date=2011-10-15&detailed=true&api_key=t0TVs3DtDT2H8Oy2Zy8m2eVrNsAVKAexjcZXUckd"
  },
  "element_count" : 8,
  "near_earth_objects" : {
    "2011-10-15" : [ {
      "links" : {
        "self" : "https://api.nasa.gov/neo/rest/v1/neo/3346460?api_key=t0TVs3DtDT2H8Oy2Zy8m2eVrNsAVKAexjcZXUckd"
      },
      "neo_reference_id" : "3346460",
      "name" : "(2006 SS134)",
      "nasa_jpl_url" : "http://ssd.jpl.nasa.gov/sbdb.cgi?sstr=3346460",
      "absolute_magnitude_h" : 21.4,
      "estimated_diameter" : {
        "kilometers" : {
          "estimated_diameter_min" : 0.1394938229,
          "estimated_diameter_max" : 0.3119176705
        },
        "meters" : {
          "estimated_diameter_min" : 139.4938229344,
          "estimated_diameter_max" : 311.9176705226
        },
        "miles" : {
          "estimated_diameter_min" : 0.0866774163,
          "estimated_diameter_max" : 0.1938165949
        },
        "feet" : {
          "estimated_diameter_min" : 457.6569140361,
          "estimated_diameter_max" : 1023.3519701574
        }
      },
      "is_potentially_hazardous_asteroid" : true,
      "close_approach_data" : [ {
        "close_approach_date" : "2011-10-15",
        "epoch_date_close_approach" : 1318662000000,
        "relative_velocity" : {
          "kilometers_per_second" : "27.9021016978",
          "kilometers_per_hour" : "100447.5661121891",
          "miles_per_hour" : "62414.2112878766"
        },
        "miss_distance" : {
          "astronomical" : "0.4004558156",
          "lunar" : "155.7773132324",
          "kilometers" : "59907336",
          "miles" : "37224692"
        },
        "orbiting_body" : "Earth"
      } ],
      "orbital_data" : {
        "orbit_id" : "30",
        "orbit_determination_date" : "2017-04-06 09:08:01",
        "orbit_uncertainty" : "1",
        "minimum_orbit_intersection" : ".0298549",
        "jupiter_tisserand_invariant" : "5.245",
        "epoch_osculation" : "2458000.5",
        "eccentricity" : ".4419525981798083",
        "semi_major_axis" : "1.171281901667405",
        "inclination" : "19.5374160223805",
        "ascending_node_longitude" : "9.050147492153574",
        "orbital_period" : "463.0102186051064",
        "perihelion_distance" : ".6536308220245088",
        "perihelion_argument" : "256.0761755264923",
        "aphelion_distance" : "1.688932981310302",
        "perihelion_time" : "2458110.142569129310",
        "mean_anomaly" : "274.7506398336832",
        "mean_motion" : ".7775206367681442",
        "equinox" : "J2000"
      }
    }, {
      "links" : {
        "self" : "https://api.nasa.gov/neo/rest/v1/neo/3696448?api_key=t0TVs3DtDT2H8Oy2Zy8m2eVrNsAVKAexjcZXUckd"
      },
      "neo_reference_id" : "3696448",
      "name" : "(2014 WM7)",
      "nasa_jpl_url" : "http://ssd.jpl.nasa.gov/sbdb.cgi?sstr=3696448",
      "absolute_magnitude_h" : 23.7,
      "estimated_diameter" : {
        "kilometers" : {
          "estimated_diameter_min" : 0.0483676488,
          "estimated_diameter_max" : 0.1081533507
        },
        "meters" : {
          "estimated_diameter_min" : 48.3676488219,
          "estimated_diameter_max" : 108.1533506775
        },
        "miles" : {
          "estimated_diameter_min" : 0.0300542543,
          "estimated_diameter_max" : 0.0672033557
        },
        "feet" : {
          "estimated_diameter_min" : 158.6865169607,
          "estimated_diameter_max" : 354.8338390368
        }
      },
      "is_potentially_hazardous_asteroid" : false,
      "close_approach_data" : [ {
        "close_approach_date" : "2011-10-15",
        "epoch_date_close_approach" : 1318662000000,
        "relative_velocity" : {
          "kilometers_per_second" : "8.3369996966",
          "kilometers_per_hour" : "30013.1989076348",
          "miles_per_hour" : "18649.0346212467"
        },
        "miss_distance" : {
          "astronomical" : "0.2816596705",
          "lunar" : "109.5656051636",
          "kilometers" : "42135688",
          "miles" : "26181902"
        },
        "orbiting_body" : "Earth"
      } ],
      "orbital_data" : {
        "orbit_id" : "10",
        "orbit_determination_date" : "2017-04-06 08:37:24",
        "orbit_uncertainty" : "7",
        "minimum_orbit_intersection" : ".0782676",
        "jupiter_tisserand_invariant" : "6.089",
        "epoch_osculation" : "2458000.5",
        "eccentricity" : ".2831558281787687",
        "semi_major_axis" : ".987795940805843",
        "inclination" : "10.79359303961514",
        "ascending_node_longitude" : "228.0761552509077",
        "orbital_period" : "358.5909151818741",
        "perihelion_distance" : ".7080957631153385",
        "perihelion_argument" : "314.620963218745",
        "aphelion_distance" : "1.267496118496347",
        "perihelion_time" : "2458155.415179405490",
        "mean_anomaly" : "204.4760806121076",
        "mean_motion" : "1.003929505066829",
        "equinox" : "J2000"
      }
    }, {
      "links" : {
        "self" : "https://api.nasa.gov/neo/rest/v1/neo/3718277?api_key=t0TVs3DtDT2H8Oy2Zy8m2eVrNsAVKAexjcZXUckd"
      },
      "neo_reference_id" : "3718277",
      "name" : "(2015 HO116)",
      "nasa_jpl_url" : "http://ssd.jpl.nasa.gov/sbdb.cgi?sstr=3718277",
      "absolute_magnitude_h" : 25.5,
      "estimated_diameter" : {
        "kilometers" : {
          "estimated_diameter_min" : 0.0211132445,
          "estimated_diameter_max" : 0.0472106499
        },
        "meters" : {
          "estimated_diameter_min" : 21.113244479,
          "estimated_diameter_max" : 47.2106498806
        },
        "miles" : {
          "estimated_diameter_min" : 0.0131191578,
          "estimated_diameter_max" : 0.0293353287
        },
        "feet" : {
          "estimated_diameter_min" : 69.2691770164,
          "estimated_diameter_max" : 154.8905885541
        }
      },
      "is_potentially_hazardous_asteroid" : false,
      "close_approach_data" : [ {
        "close_approach_date" : "2011-10-15",
        "epoch_date_close_approach" : 1318662000000,
        "relative_velocity" : {
          "kilometers_per_second" : "16.9343329595",
          "kilometers_per_hour" : "60963.5986542486",
          "miles_per_hour" : "37880.4093971358"
        },
        "miss_distance" : {
          "astronomical" : "0.4747084232",
          "lunar" : "184.6615753174",
          "kilometers" : "71015376",
          "miles" : "44126908"
        },
        "orbiting_body" : "Earth"
      } ],
      "orbital_data" : {
        "orbit_id" : "5",
        "orbit_determination_date" : "2017-04-06 08:34:06",
        "orbit_uncertainty" : "7",
        "minimum_orbit_intersection" : ".00544106",
        "jupiter_tisserand_invariant" : "5.040",
        "epoch_osculation" : "2458000.5",
        "eccentricity" : ".1775324739685814",
        "semi_major_axis" : "1.225369443124787",
        "inclination" : "33.83587087180872",
        "ascending_node_longitude" : "36.49274918922645",
        "orbital_period" : "495.4490455983681",
        "perihelion_distance" : "1.00782657436134",
        "perihelion_argument" : "191.30778683",
        "aphelion_distance" : "1.442912311888233",
        "perihelion_time" : "2458141.448004908039",
        "mean_anomaly" : "257.5852669054748",
        "mean_motion" : ".7266135704534815",
        "equinox" : "J2000"
      }
    } ]
  }
}